{"type": "FeatureCollection", "features": [ {"type": "Feature", "properties": {"norad_id": 34014, "name": "COSMOS 2251 DEB", "group": "cosmos-2251-debris", "lat": 21.595769171911858, "lon": -52.693724694649106, "alt_km": 638.5810181972183, "timestamp": "2025-12-02T10:50:47.669059+00:00", "meta": {"OBJECT_NAME": "COSMOS 2251 DEB", "OBJECT_ID": "1993-036GZ", "EPOCH": "2025-12-02T01:19:10.450848", "MEAN_MOTION": 14.72910836, "ECCENTRICITY": 0.0036696, "INCLINATION": 74.0164, "RA_OF_ASC_NODE": 301.5653, "ARG_OF_PERICENTER": 84.2678, "MEAN_ANOMALY": 354.7205, "EPHEMERIS_TYPE": 0, "CLASSIFICATION_TYPE": "U", "NORAD_CAT_ID": 34014, "ELEMENT_SET_NO": 999, "REV_AT_EPOCH": 89146, "BSTAR": 0.0011915, "MEAN_MOTION_DOT": 7.696e-05, "MEAN_MOTION_DDOT": 0}, "tle": {"line1": "1 34014U 93036GZ  25336.05498207  .00007696  00000+0  11915-2 0  9993", "line2": "2 34014  74.0164 301.5653 0036696  84.2678 354.7205 14.72910836891469"}}, "geometry": {"type": "Point", "coordinates": [-52.693724694649106, 21.595769171911858]}}, {"type": "Feature", "properties": {"norad_id": 34015, "name": "COSMOS 2251 DEB", "group": "cosmos-2251-debris", "lat": -68.88566758688734, "lon": 46.96685351793097, "alt_km": 685.832416257459, "timestamp": "2025-12-02T10:50:47.669069+00:00", "meta": {"OBJECT_NAME": "COSMOS 2251 DEB", "OBJECT_ID": "1993-036HA", "EPOCH": "2025-12-02T00:21:16.430400", "MEAN_MOTION": 14.60038239, "ECCENTRICITY": 0.0021298, "INCLINATION": 74.0237, "RA_OF_ASC_NODE": 179.9082, "ARG_OF_PERICENTER": 277.3814, "MEAN_ANOMALY": 201.8247, "EPHEMERIS_TYPE": 0, "CLASSIFICATION_TYPE": "U", "NORAD_CAT_ID": 34015, "ELEMENT_SET_NO": 999, "REV_AT_EPOCH": 88374, "BSTAR": 0.0012198, "MEAN_MOTION_DOT": 5.852e-05, "MEAN_MOTION_DDOT": 0}, "tle": {"line1": "1 34015U 93036HA  25336.01477350  .00005852  00000+0  12198-2 0  9992", "line2": "2 34015  74.0237 179.9082 0021298 277.3814 201.8247 14.60038239883748"}}, "geometry": {"type": "Point", "coordinates": [46.96685351793097, -68.88566758688734]}}, {"type": "Feature", "properties": {"norad_id": 34018, "name": "COSMOS 2251 DEB", "group": "cosmos-2251-debris", "lat": 71.92928989639766, "lon": 171.9673101571907, "alt_km": 868.4848950527676, "timestamp": "2025-12-02T10:50:47.669079+00:00", "meta": {"OBJECT_NAME": "COSMOS 2251 DEB", "OBJECT_ID": "1993-036HD", "EPOCH": "2025-12-02T02:18:20.356416", "MEAN_MOTION": 13.81044176, "ECCENTRICITY": 0.0264386, "INCLINATION": 73.8766, "RA_OF_ASC_NODE": 110.132, "ARG_OF_PERICENTER": 148.0163, "MEAN_ANOMALY": 327.8424, "EPHEMERIS_TYPE": 0, "CLASSIFICATION_TYPE": "U", "NORAD_CAT_ID": 34018, "ELEMENT_SET_NO": 999, "REV_AT_EPOCH": 84510, "BSTAR": 0.00071578, "MEAN_MOTION_DOT": 9.63e-06, "MEAN_MOTION_DDOT": 0}, "tle": {"line1": "1 34018U 93036HD  25336.09606894  .00000963  00000+0  71578-3 0  9996", "line2": "2 34018  73.8766 110.1320 0264386 148.0163 327.8424 13.81044176845108"}}, "geometry": {"type": "Point", "coordinates": [171.9673101571907, 71.92928989639766]}}, {"type": "Feature", "properties": {"norad_id": 34019, "name": "COSMOS 2251 DEB", "group": "cosmos-2251-debris", "lat": 51.729572685875674, "lon": 91.05329958673896, "alt_km": 816.5187202239113, "timestamp": "2025-12-02T10:50:47.669090+00:00", "meta": {"OBJECT_NAME": "COSMOS 2251 DEB", "OBJECT_ID": "1993-036HE", "EPOCH": "2025-12-01T15:01:15.071232", "MEAN_MOTION": 14.33841757, "ECCENTRICITY": 0.00626765, "INCLINATION": 73.9546, "RA_OF_ASC_NODE": 71.1768, "ARG_OF_PERICENTER": 253.964, "MEAN_ANOMALY": 218.3144, "EPHEMERIS_TYPE": 0, "CLASSIFICATION_TYPE": "U", "NORAD_CAT_ID": 34019, "ELEMENT_SET_NO": 999, "REV_AT_EPOCH": 87361, "BSTAR": 0.0010320377, "MEAN_MOTION_DOT": 2.91e-05, "MEAN_MOTION_DDOT": 0}, "tle": {"line1": "1 34019U 93036HE  25335.62586888  .00002910  00000+0  10320-2 0  9996", "line2": "2 34019  73.9546  71.1768 0062676 253.9640 218.3144 14.33841757873610"}}, "geometry": {"type": "Point", "coordinates": [91.05329958673896, 51.729572685875674]}}, {"type": "Feature", "properties": {"norad_id": 34021, "name": "COSMOS 2251 DEB", "group": "cosmos-2251-debris", "lat": -70.64640200071817, "lon": 94.55036109510779, "alt_km": 718.6489246494266, "timestamp": "2025-12-02T10:50:47.669101+00:00", "meta": {"OBJECT_NAME": "COSMOS 2251 DEB", "OBJECT_ID": "1993-036HG", "EPOCH": "2025-12-01T22:39:58.637952", "MEAN_MOTION": 14.49882781, "ECCENTRICITY": 0.0020668, "INCLINATION": 74.0342, "RA_OF_ASC_NODE": 150.0964, "ARG_OF_PERICENTER": 295.1708, "MEAN_ANOMALY": 218.0556, "EPHEMERIS_TYPE": 0, "CLASSIFICATION_TYPE": "U", "NORAD_CAT_ID": 34021, "ELEMENT_SET_NO": 999, "REV_AT_EPOCH": 88473, "BSTAR": 0.00049293, "MEAN_MOTION_DOT": 1.882e-05, "MEAN_MOTION_DDOT": 0}, "tle": {"line1": "1 34021U 93036HG  25335.94442868  .00001882  00000+0  49293-3 0  9992", "line2": "2 34021  74.0342 150.0964 0020668 295.1708 218.0556 14.49882781884730"}}, "geometry": {"type": "Point", "coordinates": [94.55036109510779, -70.64640200071817]}}, {"type": "Feature", "properties": {"norad_id": 34022, "name": "COSMOS 2251 DEB", "group": "cosmos-2251-debris", "lat": 34.92644797706944, "lon": 98.23448040154231, "alt_km": 772.6489146797185, "timestamp": "2025-12-02T10:50:47.669111+00:00", "meta": {"OBJECT_NAME": "COSMOS 2251 DEB", "OBJECT_ID": "1993-036HH", "EPOCH": "2025-12-02T03:35:54.033216", "MEAN_MOTION": 14.38934408, "ECCENTRICITY": 0.0022306, "INCLINATION": 74.0538, "RA_OF_ASC_NODE": 290.3074, "ARG_OF_PERICENTER": 357.2824, "MEAN_ANOMALY": 22.1159, "EPHEMERIS_TYPE": 0, "CLASSIFICATION_TYPE": "U", "NORAD_CAT_ID": 34022, "ELEMENT_SET_NO": 999, "REV_AT_EPOCH": 88043, "BSTAR": 0.00030135, "MEAN_MOTION_DOT": 9.05e-06, "MEAN_MOTION_DDOT": 0}, "tle": {"line1": "1 34022U 93036HH  25336.14993094  .00000905  00000+0  30135-3 0  9998", "line2": "2 34022  74.0538 290.3074 0022306 357.2824  22.1159 14.38934408880436"}}, "geometry": {"type": "Point", "coordinates": [98.23448040154231, 34.92644797706944]}}, {"type": "Feature", "properties": {"norad_id": 34023, "name": "COSMOS 2251 DEB", "group": "cosmos-2251-debris", "lat": 3.402280870996304, "lon": -88.24296859463941, "alt_km": 746.1295056555764, "timestamp": "2025-12-02T10:50:47.669121+00:00", "meta": {"OBJECT_NAME": "COSMOS 2251 DEB", "OBJECT_ID": "1993-036HJ", "EPOCH": "2025-12-02T04:48:07.305120", "MEAN_MOTION": 14.40519714, "ECCENTRICITY": 0.001801, "INCLINATION": 74.0249, "RA_OF_ASC_NODE": 271.2471, "ARG_OF_PERICENTER": 8.7686, "MEAN_ANOMALY": 129.3355, "EPHEMERIS_TYPE": 0, "CLASSIFICATION_TYPE": "U", "NORAD_CAT_ID": 34023, "ELEMENT_SET_NO": 999, "REV_AT_EPOCH": 88062, "BSTAR": 0.0004346, "MEAN_MOTION_DOT": 1.36e-05, "MEAN_MOTION_DDOT": 0}, "tle": {"line1": "1 34023U 93036HJ  25336.20008455  .00001360  00000+0  43460-3 0  9995", "line2": "2 34023  74.0249 271.2471 0018010   8.7686 129.3355 14.40519714880627"}}, "geometry": {"type": "Point", "coordinates": [-88.24296859463941, 3.402280870996304]}}, {"type": "Feature", "properties": {"norad_id": 34024, "name": "COSMOS 2251 DEB", "group": "cosmos-2251-debris", "lat": -23.094085733207887, "lon": 161.857083494346, "alt_km": 793.5467621153812, "timestamp": "2025-12-02T10:50:47.669131+00:00", "meta": {"OBJECT_NAME": "COSMOS 2251 DEB", "OBJECT_ID": "1993-036HK", "EPOCH": "2025-12-02T01:47:56.624352", "MEAN_MOTION": 14.3537613, "ECCENTRICITY": 0.0020554, "INCLINATION": 74.0462, "RA_OF_ASC_NODE": 335.5414, "ARG_OF_PERICENTER": 29.1669, "MEAN_ANOMALY": 27.5789, "EPHEMERIS_TYPE": 0, "CLASSIFICATION_TYPE": "U", "NORAD_CAT_ID": 34024, "ELEMENT_SET_NO": 999, "REV_AT_EPOCH": 87871, "BSTAR": 0.00022903, "MEAN_MOTION_DOT": 6.33e-06, "MEAN_MOTION_DDOT": 0}, "tle": {"line1": "1 34024U 93036HK  25336.07496093  .00000633  00000+0  22903-3 0  9991", "line2": "2 34024  74.0462 335.5414 0020554  29.1669  27.5789 14.35376130878714"}}, "geometry": {"type": "Point", "coordinates": [161.857083494346, -23.094085733207887]}}, {"type": "Feature", "properties": {"norad_id": 34026, "name": "COSMOS 2251 DEB", "group": "cosmos-2251-debris", "lat": 18.977206599815947, "lon": 168.64482068673192, "alt_km": 902.351095665661, "timestamp": "2025-12-02T10:50:47.669141+00:00", "meta": {"OBJECT_NAME": "COSMOS 2251 DEB", "OBJECT_ID": "1993-036HM", "EPOCH": "2025-12-02T01:23:38.759136", "MEAN_MOTION": 13.65273134, "ECCENTRICITY": 0.035128, "INCLINATION": 73.7675, "RA_OF_ASC_NODE": 355.0489, "ARG_OF_PERICENTER": 226.6089, "MEAN_ANOMALY": 162.055, "EPHEMERIS_TYPE": 0, "CLASSIFICATION_TYPE": "U", "NORAD_CAT_ID": 34026, "ELEMENT_SET_NO": 999, "REV_AT_EPOCH": 83386, "BSTAR": 0.001136, "MEAN_MOTION_DOT": 1.383e-05, "MEAN_MOTION_DDOT": 0}, "tle": {"line1": "1 34026U 93036HM  25336.05808749  .00001383  00000+0  11360-2 0  9993", "line2": "2 34026  73.7675 355.0489 0351280 226.6089 162.0550 13.65273134833860"}}, "geometry": {"type": "Point", "coordinates": [168.64482068673192, 18.977206599815947]}}, {"type": "Feature", "properties": {"norad_id": 34028, "name": "COSMOS 2251 DEB", "group": "cosmos-2251-debris", "lat": 26.2432841951208, "lon": 11.21808292223838, "alt_km": 1336.9238960834045, "timestamp": "2025-12-02T10:50:47.669152+00:00", "meta": {"OBJECT_NAME": "COSMOS 2251 DEB", "OBJECT_ID": "1993-036HP", "EPOCH": "2025-12-01T21:01:06.818304", "MEAN_MOTION": 13.20614793, "ECCENTRICITY": 0.0544212, "INCLINATION": 73.8839, "RA_OF_ASC_NODE": 3.9068, "ARG_OF_PERICENTER": 143.605, "MEAN_ANOMALY": 31.3938, "EPHEMERIS_TYPE": 0, "CLASSIFICATION_TYPE": "U", "NORAD_CAT_ID": 34028, "ELEMENT_SET_NO": 999, "REV_AT_EPOCH": 80864, "BSTAR": 0.00030579, "MEAN_MOTION_DOT": 2.53e-06, "MEAN_MOTION_DDOT": 0}, "tle": {"line1": "1 34028U 93036HP  25335.87577336  .00000253  00000+0  30579-3 0  9998", "line2": "2 34028  73.8839   3.9068 0544212 143.6050  31.3938 13.20614793808649"}}, "geometry": {"type": "Point", "coordinates": [11.21808292223838, 26.2432841951208]}}]}